{"type": "FeatureCollection", "features": [ {"type": "Feature", "properties": {"norad_id": 60453, "name": "LEGION 4", "group": "resource", "lat": -6.212560589012713, "lon": 80.74705596058297, "alt_km": 518.9315460186726, "timestamp": "2025-12-04T07:39:35.828306+00:00", "meta": {"OBJECT_NAME": "LEGION 4", "OBJECT_ID": "2024-146B", "EPOCH": "2025-12-03T19:02:38.971968", "MEAN_MOTION": 15.15671103, "ECCENTRICITY": 0.00099253, "INCLINATION": 45.0382, "RA_OF_ASC_NODE": 89.8096, "ARG_OF_PERICENTER": 264.5426, "MEAN_ANOMALY": 95.4321, "EPHEMERIS_TYPE": 0, "CLASSIFICATION_TYPE": "U", "NORAD_CAT_ID": 60453, "ELEMENT_SET_NO": 999, "REV_AT_EPOCH": 7122, "BSTAR": 0.00056693751, "MEAN_MOTION_DOT": 0.00010735, "MEAN_MOTION_DDOT": 0}, "tle": {"line1": "1 60453U 24146B   25337.79350662  .00010735  00000+0  56694-3 0  9991", "line2": "2 60453  45.0382  89.8096 0009925 264.5426  95.4321 15.15671103 71222"}}, "geometry": {"type": "Point", "coordinates": [80.74705596058297, -6.212560589012713]}}, {"type": "Feature", "properties": {"norad_id": 60989, "name": "SENTINEL-2C", "group": "resource", "lat": -34.15997758653423, "lon": -134.94419573486562, "alt_km": 795.48260847641, "timestamp": "2025-12-04T07:39:35.828315+00:00", "meta": {"OBJECT_NAME": "SENTINEL-2C", "OBJECT_ID": "2024-157A", "EPOCH": "2025-12-03T17:14:02.854176", "MEAN_MOTION": 14.30824273, "ECCENTRICITY": 0.00011415, "INCLINATION": 98.5613, "RA_OF_ASC_NODE": 50.3311, "ARG_OF_PERICENTER": 101.8522, "MEAN_ANOMALY": 258.2789, "EPHEMERIS_TYPE": 0, "CLASSIFICATION_TYPE": "U", "NORAD_CAT_ID": 60989, "ELEMENT_SET_NO": 999, "REV_AT_EPOCH": 6503, "BSTAR": 0.00011011088, "MEAN_MOTION_DOT": 2.45e-06, "MEAN_MOTION_DDOT": 0}, "tle": {"line1": "1 60989U 24157A   25337.71808859  .00000245  00000+0  11011-3 0  9994", "line2": "2 60989  98.5613  50.3311 0001141 101.8522 258.2789 14.30824273 65034"}}, "geometry": {"type": "Point", "coordinates": [-134.94419573486562, -34.15997758653423]}}, {"type": "Feature", "properties": {"norad_id": 61735, "name": "IONOSFERA-M 1", "group": "resource", "lat": 5.848656117306629, "lon": -152.67154404160735, "alt_km": 817.4591176968906, "timestamp": "2025-12-04T07:39:35.828325+00:00", "meta": {"OBJECT_NAME": "IONOSFERA-M 1", "OBJECT_ID": "2024-199A", "EPOCH": "2025-12-03T23:11:34.290240", "MEAN_MOTION": 14.22710862, "ECCENTRICITY": 0.00013464, "INCLINATION": 98.7409, "RA_OF_ASC_NODE": 207.8815, "ARG_OF_PERICENTER": 34.0594, "MEAN_ANOMALY": 326.067, "EPHEMERIS_TYPE": 0, "CLASSIFICATION_TYPE": "U", "NORAD_CAT_ID": 61735, "ELEMENT_SET_NO": 999, "REV_AT_EPOCH": 9994, "BSTAR": 7.8886225e-05, "MEAN_MOTION_DOT": 1.32e-06, "MEAN_MOTION_DDOT": 0}, "tle": {"line1": "1 61735U 24199A   25337.96636910  .00000132  00000+0  78886-4 0  9993", "line2": "2 61735  98.7409 207.8815 0001346  34.0594 326.0670 14.22710862 99949"}}, "geometry": {"type": "Point", "coordinates": [-152.67154404160735, 5.848656117306629]}}, {"type": "Feature", "properties": {"norad_id": 61736, "name": "IONOSFERA-M 2", "group": "resource", "lat": -8.669745098149619, "lon": 26.79981512037507, "alt_km": 819.8014299594843, "timestamp": "2025-12-04T07:39:35.828334+00:00", "meta": {"OBJECT_NAME": "IONOSFERA-M 2", "OBJECT_ID": "2024-199B", "EPOCH": "2025-12-03T22:20:12.397920", "MEAN_MOTION": 14.22713154, "ECCENTRICITY": 0.00014009, "INCLINATION": 98.7407, "RA_OF_ASC_NODE": 207.7587, "ARG_OF_PERICENTER": 121.028, "MEAN_ANOMALY": 239.1036, "EPHEMERIS_TYPE": 0, "CLASSIFICATION_TYPE": "U", "NORAD_CAT_ID": 61736, "ELEMENT_SET_NO": 999, "REV_AT_EPOCH": 10306, "BSTAR": 9.6536127e-05, "MEAN_MOTION_DOT": 1.72e-06, "MEAN_MOTION_DDOT": 0}, "tle": {"line1": "1 61736U 24199B   25337.93069905  .00000172  00000+0  96536-4 0  9991", "line2": "2 61736  98.7407 207.7587 0001400 121.0280 239.1036 14.22713154103069"}}, "geometry": {"type": "Point", "coordinates": [26.79981512037507, -8.669745098149619]}}, {"type": "Feature", "properties": {"norad_id": 63772, "name": "BIOMASS", "group": "resource", "lat": 73.40804400135553, "lon": 11.887923433378118, "alt_km": 661.1364424055837, "timestamp": "2025-12-04T07:39:35.828344+00:00", "meta": {"OBJECT_NAME": "BIOMASS", "OBJECT_ID": "2025-090A", "EPOCH": "2025-12-03T11:32:56.497344", "MEAN_MOTION": 14.67534999, "ECCENTRICITY": 0.00012209, "INCLINATION": 98.0704, "RA_OF_ASC_NODE": 162.625, "ARG_OF_PERICENTER": 79.869, "MEAN_ANOMALY": 280.2652, "EPHEMERIS_TYPE": 0, "CLASSIFICATION_TYPE": "U", "NORAD_CAT_ID": 63772, "ELEMENT_SET_NO": 999, "REV_AT_EPOCH": 3198, "BSTAR": 0.00037433775, "MEAN_MOTION_DOT": 2.075e-05, "MEAN_MOTION_DDOT": 0}, "tle": {"line1": "1 63772U 25090A   25337.48120946  .00002075  00000+0  37434-3 0  9992", "line2": "2 63772  98.0704 162.6250 0001220  79.8690 280.2652 14.67534999 31984"}}, "geometry": {"type": "Point", "coordinates": [11.887923433378118, 73.40804400135553]}}, {"type": "Feature", "properties": {"norad_id": 64694, "name": "GOSAT-GW (IBUKI GW)", "group": "resource", "lat": -46.12103480271068, "lon": -77.56362254040022, "alt_km": 676.042864568698, "timestamp": "2025-12-04T07:39:35.828353+00:00", "meta": {"OBJECT_NAME": "GOSAT-GW (IBUKI GW)", "OBJECT_ID": "2025-141A", "EPOCH": "2025-11-30T05:41:32.267328", "MEAN_MOTION": 14.67567435, "ECCENTRICITY": 0.00014369, "INCLINATION": 98.0401, "RA_OF_ASC_NODE": 269.9775, "ARG_OF_PERICENTER": 82.921, "MEAN_ANOMALY": 277.2158, "EPHEMERIS_TYPE": 0, "CLASSIFICATION_TYPE": "U", "NORAD_CAT_ID": 64694, "ELEMENT_SET_NO": 999, "REV_AT_EPOCH": 2266, "BSTAR": 0.00019762357, "MEAN_MOTION_DOT": 1.074e-05, "MEAN_MOTION_DDOT": 0}, "tle": {"line1": "1 64694U 25141A   25334.23717902  .00001074  00000+0  19762-3 0  9999", "line2": "2 64694  98.0401 269.9775 0001436  82.9210 277.2158 14.67567435 22660"}}, "geometry": {"type": "Point", "coordinates": [-77.56362254040022, -46.12103480271068]}}, {"type": "Feature", "properties": {"norad_id": 64876, "name": "IONOSFERA-M 3", "group": "resource", "lat": -81.2690222723869, "lon": 19.757860717665746, "alt_km": 829.454465718185, "timestamp": "2025-12-04T07:39:35.828362+00:00", "meta": {"OBJECT_NAME": "IONOSFERA-M 3", "OBJECT_ID": "2025-155A", "EPOCH": "2025-12-03T23:37:42.312864", "MEAN_MOTION": 14.21437667, "ECCENTRICITY": 0.00023864, "INCLINATION": 98.577, "RA_OF_ASC_NODE": 300.099, "ARG_OF_PERICENTER": 73.6832, "MEAN_ANOMALY": 286.4608, "EPHEMERIS_TYPE": 0, "CLASSIFICATION_TYPE": "U", "NORAD_CAT_ID": 64876, "ELEMENT_SET_NO": 999, "REV_AT_EPOCH": 1867, "BSTAR": 9.6573107e-05, "MEAN_MOTION_DOT": 1.68e-06, "MEAN_MOTION_DDOT": 0}, "tle": {"line1": "1 64876U 25155A   25337.98451751  .00000168  00000+0  96573-4 0  9997", "line2": "2 64876  98.5770 300.0990 0002386  73.6832 286.4608 14.21437667 18675"}}, "geometry": {"type": "Point", "coordinates": [19.757860717665746, -81.2690222723869]}}, {"type": "Feature", "properties": {"norad_id": 64877, "name": "IONOSFERA-M 4", "group": "resource", "lat": 81.12803771391668, "lon": -164.4508133719181, "alt_km": 811.8671270047489, "timestamp": "2025-12-04T07:39:35.828371+00:00", "meta": {"OBJECT_NAME": "IONOSFERA-M 4", "OBJECT_ID": "2025-155B", "EPOCH": "2025-12-04T00:28:12.578592", "MEAN_MOTION": 14.21438751, "ECCENTRICITY": 0.00017389, "INCLINATION": 98.5769, "RA_OF_ASC_NODE": 300.0527, "ARG_OF_PERICENTER": 72.432, "MEAN_ANOMALY": 287.7048, "EPHEMERIS_TYPE": 0, "CLASSIFICATION_TYPE": "U", "NORAD_CAT_ID": 64877, "ELEMENT_SET_NO": 999, "REV_AT_EPOCH": 1867, "BSTAR": 9.8707303e-05, "MEAN_MOTION_DOT": 1.73e-06, "MEAN_MOTION_DDOT": 0}, "tle": {"line1": "1 64877U 25155B   25338.01959003  .00000173  00000+0  98707-4 0  9993", "line2": "2 64877  98.5769 300.0527 0001738  72.4320 287.7048 14.21438751 18676"}}, "geometry": {"type": "Point", "coordinates": [-164.4508133719181, 81.12803771391668]}}, {"type": "Feature", "properties": {"norad_id": 64899, "name": "MICROCARB", "group": "resource", "lat": 24.45015482820007, "lon": -122.53282310636384, "alt_km": 642.7469717905205, "timestamp": "2025-12-04T07:39:35.828381+00:00", "meta": {"OBJECT_NAME": "MICROCARB", "OBJECT_ID": "2025-156A", "EPOCH": "2025-12-03T16:16:28.890624", "MEAN_MOTION": 14.72032665, "ECCENTRICITY": 0.00165465, "INCLINATION": 98.0035, "RA_OF_ASC_NODE": 53.1686, "ARG_OF_PERICENTER": 172.8585, "MEAN_ANOMALY": 187.2861, "EPHEMERIS_TYPE": 0, "CLASSIFICATION_TYPE": "U", "NORAD_CAT_ID": 64899, "ELEMENT_SET_NO": 999, "REV_AT_EPOCH": 1920, "BSTAR": 0.00019799102, "MEAN_MOTION_DOT": 1.196e-05, "MEAN_MOTION_DDOT": 0}, "tle": {"line1": "1 64899U 25156A   25337.67811216  .00001196  00000+0  19799-3 0  9991", "line2": "2 64899  98.0035  53.1686 0016546 172.8585 187.2861 14.72032665 19201"}}, "geometry": {"type": "Point", "coordinates": [-122.53282310636384, 24.45015482820007]}}, {"type": "Feature", "properties": {"norad_id": 64900, "name": "CO3D 3", "group": "resource", "lat": 0.22431012920270368, "lon": -125.16351187982902, "alt_km": 507.5925501515112, "timestamp": "2025-12-04T07:39:35.828390+00:00", "meta": {"OBJECT_NAME": "CO3D 3", "OBJECT_ID": "2025-156B", "EPOCH": "2025-12-02T23:16:40.108224", "MEAN_MOTION": 15.2021179, "ECCENTRICITY": 0.00013753, "INCLINATION": 97.4352, "RA_OF_ASC_NODE": 53.4771, "ARG_OF_PERICENTER": 132.9697, "MEAN_ANOMALY": 227.1654, "EPHEMERIS_TYPE": 0, "CLASSIFICATION_TYPE": "U", "NORAD_CAT_ID": 64900, "ELEMENT_SET_NO": 999, "REV_AT_EPOCH": 1972, "BSTAR": 0.00042667501, "MEAN_MOTION_DOT": 9.183e-05, "MEAN_MOTION_DDOT": 0}, "tle": {"line1": "1 64900U 25156B   25336.96990866  .00009183  00000+0  42668-3 0  9999", "line2": "2 64900  97.4352  53.4771 0001375 132.9697 227.1654 15.20211790 19725"}}, "geometry": {"type": "Point", "coordinates": [-125.16351187982902, 0.22431012920270368]}}]}